{"fetched_at":"2026-07-07T07:58:49.349Z","source":"https://celestrak.org/NORAD/elements/gp.php?NAME=RCM&FORMAT=JSON","constellation":"rcm","records":[{"OBJECT_NAME":"RCM-1","OBJECT_ID":"2019-033A","EPOCH":"2026-07-06T20:15:31.314816","CLASSIFICATION_TYPE":"U","MEAN_MOTION":14.92585749,"ECCENTRICITY":0.0001503,"INCLINATION":97.7599,"RA_OF_ASC_NODE":195.0124,"ARG_OF_PERICENTER":90.794,"MEAN_ANOMALY":269.3451,"EPHEMERIS_TYPE":0,"NORAD_CAT_ID":44322,"ELEMENT_SET_NO":999,"REV_AT_EPOCH":38501,"BSTAR":0.000090641,"MEAN_MOTION_DOT":0.00000876,"MEAN_MOTION_DDOT":0},{"OBJECT_NAME":"RCM-3","OBJECT_ID":"2019-033B","EPOCH":"2026-07-06T17:34:59.696832","CLASSIFICATION_TYPE":"U","MEAN_MOTION":14.92589837,"ECCENTRICITY":0.0001576,"INCLINATION":97.7597,"RA_OF_ASC_NODE":194.997,"ARG_OF_PERICENTER":87.9953,"MEAN_ANOMALY":272.1447,"EPHEMERIS_TYPE":0,"NORAD_CAT_ID":44323,"ELEMENT_SET_NO":999,"REV_AT_EPOCH":38501,"BSTAR":-0.000021595,"MEAN_MOTION_DOT":-0.00000278,"MEAN_MOTION_DDOT":0},{"OBJECT_NAME":"RCM-2","OBJECT_ID":"2019-033C","EPOCH":"2026-07-06T21:20:03.177888","CLASSIFICATION_TYPE":"U","MEAN_MOTION":14.92589832,"ECCENTRICITY":0.000153,"INCLINATION":97.7605,"RA_OF_ASC_NODE":195.1014,"ARG_OF_PERICENTER":88.6465,"MEAN_ANOMALY":271.493,"EPHEMERIS_TYPE":0,"NORAD_CAT_ID":44324,"ELEMENT_SET_NO":999,"REV_AT_EPOCH":38502,"BSTAR":0.000010852,"MEAN_MOTION_DOT":5.6e-7,"MEAN_MOTION_DDOT":0}]}
