RCM-1                   
1 44322U 19033A   26187.84411244  .00000876  00000+0  90641-4 0  9997
2 44322  97.7599 195.0124 0001503  90.7940 269.3451 14.92585749385014
RCM-3                   
1 44323U 19033B   26187.73263538 -.00000278  00000+0 -21595-4 0  9997
2 44323  97.7597 194.9970 0001576  87.9953 272.1447 14.92589837385011
RCM-2                   
1 44324U 19033C   26187.88892567  .00000056  00000+0  10852-4 0  9990
2 44324  97.7605 195.1014 0001530  88.6465 271.4930 14.92589832385025
